{"type": "FeatureCollection", "features": [ {"type": "Feature", "properties": {"norad_id": 36045, "name": "COSMOS 2251 DEB", "group": "cosmos-2251-debris", "lat": -52.84040236406104, "lon": -94.45756977015427, "alt_km": 700.1347644470015, "timestamp": "2025-12-10T18:57:00.462057+00:00", "meta": {"OBJECT_NAME": "COSMOS 2251 DEB", "OBJECT_ID": "1993-036AXG", "EPOCH": "2025-12-09T12:28:41.789568", "MEAN_MOTION": 14.69724058, "ECCENTRICITY": 0.00485126, "INCLINATION": 73.764, "RA_OF_ASC_NODE": 65.432, "ARG_OF_PERICENTER": 80.3147, "MEAN_ANOMALY": 280.3498, "EPHEMERIS_TYPE": 0, "CLASSIFICATION_TYPE": "U", "NORAD_CAT_ID": 36045, "ELEMENT_SET_NO": 999, "REV_AT_EPOCH": 8341, "BSTAR": 0.003329583, "MEAN_MOTION_DOT": 0.00020233, "MEAN_MOTION_DDOT": 0}, "tle": {"line1": "1 36045U 93036AXG 25343.51992812  .00020233  00000+0  33296-2 0  9997", "line2": "2 36045  73.7640  65.4320 0048512  80.3147 280.3498 14.69724058 83416"}}, "geometry": {"type": "Point", "coordinates": [-94.45756977015427, -52.84040236406104]}}, {"type": "Feature", "properties": {"norad_id": 36046, "name": "COSMOS 2251 DEB", "group": "cosmos-2251-debris", "lat": -30.611440831524945, "lon": -89.50575831617753, "alt_km": 687.6371368060763, "timestamp": "2025-12-10T18:57:00.462067+00:00", "meta": {"OBJECT_NAME": "COSMOS 2251 DEB", "OBJECT_ID": "1993-036AXH", "EPOCH": "2025-12-07T14:53:37.140000", "MEAN_MOTION": 14.65217113, "ECCENTRICITY": 0.00554066, "INCLINATION": 74.0172, "RA_OF_ASC_NODE": 286.36, "ARG_OF_PERICENTER": 73.7608, "MEAN_ANOMALY": 105.7765, "EPHEMERIS_TYPE": 0, "CLASSIFICATION_TYPE": "U", "NORAD_CAT_ID": 36046, "ELEMENT_SET_NO": 999, "REV_AT_EPOCH": 63928, "BSTAR": 0.0010874052, "MEAN_MOTION_DOT": 5.963e-05, "MEAN_MOTION_DDOT": 0}, "tle": {"line1": "1 36046U 93036AXH 25341.62056875  .00005963  00000+0  10874-2 0  9998", "line2": "2 36046  74.0172 286.3600 0055406  73.7608 105.7765 14.65217113639288"}}, "geometry": {"type": "Point", "coordinates": [-89.50575831617753, -30.611440831524945]}}, {"type": "Feature", "properties": {"norad_id": 36047, "name": "COSMOS 2251 DEB", "group": "cosmos-2251-debris", "lat": 43.40818611680971, "lon": -6.193324006045063, "alt_km": 571.7102362542983, "timestamp": "2025-12-10T18:57:00.462077+00:00", "meta": {"OBJECT_NAME": "COSMOS 2251 DEB", "OBJECT_ID": "1993-036AXJ", "EPOCH": "2025-12-09T17:03:49.507488", "MEAN_MOTION": 14.95728614, "ECCENTRICITY": 0.00081605, "INCLINATION": 74.0362, "RA_OF_ASC_NODE": 340.2728, "ARG_OF_PERICENTER": 6.5985, "MEAN_ANOMALY": 353.5306, "EPHEMERIS_TYPE": 0, "CLASSIFICATION_TYPE": "U", "NORAD_CAT_ID": 36047, "ELEMENT_SET_NO": 999, "REV_AT_EPOCH": 65894, "BSTAR": 0.0027577472, "MEAN_MOTION_DOT": 0.00030846, "MEAN_MOTION_DDOT": 0}, "tle": {"line1": "1 36047U 93036AXJ 25343.71098967  .00030846  00000+0  27577-2 0  9995", "line2": "2 36047  74.0362 340.2728 0008160   6.5985 353.5306 14.95728614658942"}}, "geometry": {"type": "Point", "coordinates": [-6.193324006045063, 43.40818611680971]}}, {"type": "Feature", "properties": {"norad_id": 36048, "name": "COSMOS 2251 DEB", "group": "cosmos-2251-debris", "lat": 21.11232516507764, "lon": -50.79172421561842, "alt_km": 748.5357081361462, "timestamp": "2025-12-10T18:57:00.462087+00:00", "meta": {"OBJECT_NAME": "COSMOS 2251 DEB", "OBJECT_ID": "1993-036AXK", "EPOCH": "2025-12-10T07:51:23.656896", "MEAN_MOTION": 14.3784538, "ECCENTRICITY": 0.0026514, "INCLINATION": 74.0571, "RA_OF_ASC_NODE": 303.7212, "ARG_OF_PERICENTER": 354.2337, "MEAN_ANOMALY": 156.0655, "EPHEMERIS_TYPE": 0, "CLASSIFICATION_TYPE": "U", "NORAD_CAT_ID": 36048, "ELEMENT_SET_NO": 999, "REV_AT_EPOCH": 85467, "BSTAR": 0.00048763, "MEAN_MOTION_DOT": 1.45e-05, "MEAN_MOTION_DDOT": 0}, "tle": {"line1": "1 36048U 93036AXK 25344.32735714  .00001450  00000+0  48763-3 0  9992", "line2": "2 36048  74.0571 303.7212 0026514 354.2337 156.0655 14.37845380854671"}}, "geometry": {"type": "Point", "coordinates": [-50.79172421561842, 21.11232516507764]}}, {"type": "Feature", "properties": {"norad_id": 36049, "name": "COSMOS 2251 DEB", "group": "cosmos-2251-debris", "lat": -40.307845337919034, "lon": 108.85829928138004, "alt_km": 695.0523408831259, "timestamp": "2025-12-10T18:57:00.462097+00:00", "meta": {"OBJECT_NAME": "COSMOS 2251 DEB", "OBJECT_ID": "1993-036AXL", "EPOCH": "2025-12-10T09:17:25.666368", "MEAN_MOTION": 14.62089102, "ECCENTRICITY": 0.0010921, "INCLINATION": 74.0302, "RA_OF_ASC_NODE": 123.6879, "ARG_OF_PERICENTER": 209.9714, "MEAN_ANOMALY": 150.0829, "EPHEMERIS_TYPE": 0, "CLASSIFICATION_TYPE": "U", "NORAD_CAT_ID": 36049, "ELEMENT_SET_NO": 999, "REV_AT_EPOCH": 85330, "BSTAR": 0.0023538, "MEAN_MOTION_DOT": 0.00011827, "MEAN_MOTION_DDOT": 0}, "tle": {"line1": "1 36049U 93036AXL 25344.38710262  .00011827  00000+0  23538-2 0  9991", "line2": "2 36049  74.0302 123.6879 0010921 209.9714 150.0829 14.62089102853308"}}, "geometry": {"type": "Point", "coordinates": [108.85829928138004, -40.307845337919034]}}, {"type": "Feature", "properties": {"norad_id": 36050, "name": "COSMOS 2251 DEB", "group": "cosmos-2251-debris", "lat": 59.834518012388266, "lon": -11.519806444681619, "alt_km": 616.4016369174597, "timestamp": "2025-12-10T18:57:00.462107+00:00", "meta": {"OBJECT_NAME": "COSMOS 2251 DEB", "OBJECT_ID": "1993-036AXM", "EPOCH": "2025-12-10T07:13:56.773056", "MEAN_MOTION": 15.00978663, "ECCENTRICITY": 0.0088905, "INCLINATION": 74.0317, "RA_OF_ASC_NODE": 198.9901, "ARG_OF_PERICENTER": 279.1661, "MEAN_ANOMALY": 79.9477, "EPHEMERIS_TYPE": 0, "CLASSIFICATION_TYPE": "U", "NORAD_CAT_ID": 36050, "ELEMENT_SET_NO": 999, "REV_AT_EPOCH": 66998, "BSTAR": 0.00072759, "MEAN_MOTION_DOT": 0.00010072, "MEAN_MOTION_DDOT": 0}, "tle": {"line1": "1 36050U 93036AXM 25344.30135154  .00010072  00000+0  72759-3 0  9997", "line2": "2 36050  74.0317 198.9901 0088905 279.1661  79.9477 15.00978663669983"}}, "geometry": {"type": "Point", "coordinates": [-11.519806444681619, 59.834518012388266]}}, {"type": "Feature", "properties": {"norad_id": 36053, "name": "COSMOS 2251 DEB", "group": "cosmos-2251-debris", "lat": -28.499110339217097, "lon": 147.3894934528012, "alt_km": 724.6606224523657, "timestamp": "2025-12-10T18:57:00.462142+00:00", "meta": {"OBJECT_NAME": "COSMOS 2251 DEB", "OBJECT_ID": "1993-036AXQ", "EPOCH": "2025-12-09T11:46:46.363296", "MEAN_MOTION": 14.57102394, "ECCENTRICITY": 0.00328266, "INCLINATION": 73.8711, "RA_OF_ASC_NODE": 158.9194, "ARG_OF_PERICENTER": 109.1774, "MEAN_ANOMALY": 251.2947, "EPHEMERIS_TYPE": 0, "CLASSIFICATION_TYPE": "U", "NORAD_CAT_ID": 36053, "ELEMENT_SET_NO": 999, "REV_AT_EPOCH": 87397, "BSTAR": 0.0022318191, "MEAN_MOTION_DOT": 0.00010116, "MEAN_MOTION_DDOT": 0}, "tle": {"line1": "1 36053U 93036AXQ 25343.49081439  .00010116  00000+0  22318-2 0  9999", "line2": "2 36053  73.8711 158.9194 0032826 109.1774 251.2947 14.57102394873973"}}, "geometry": {"type": "Point", "coordinates": [147.3894934528012, -28.499110339217097]}}, {"type": "Feature", "properties": {"norad_id": 36058, "name": "COSMOS 2251 DEB", "group": "cosmos-2251-debris", "lat": 73.50410193126697, "lon": 112.51541985503688, "alt_km": 687.7846682910895, "timestamp": "2025-12-10T18:57:00.462153+00:00", "meta": {"OBJECT_NAME": "COSMOS 2251 DEB", "OBJECT_ID": "1993-036AXV", "EPOCH": "2025-12-09T21:09:28.031616", "MEAN_MOTION": 14.58669067, "ECCENTRICITY": 0.00447805, "INCLINATION": 74.0233, "RA_OF_ASC_NODE": 38.9054, "ARG_OF_PERICENTER": 173.9779, "MEAN_ANOMALY": 186.1934, "EPHEMERIS_TYPE": 0, "CLASSIFICATION_TYPE": "U", "NORAD_CAT_ID": 36058, "ELEMENT_SET_NO": 999, "REV_AT_EPOCH": 66069, "BSTAR": 0.00079291916, "MEAN_MOTION_DOT": 3.72e-05, "MEAN_MOTION_DDOT": 0}, "tle": {"line1": "1 36058U 93036AXV 25343.88157444  .00003720  00000+0  79292-3 0  9994", "line2": "2 36058  74.0233  38.9054 0044780 173.9779 186.1934 14.58669067660699"}}, "geometry": {"type": "Point", "coordinates": [112.51541985503688, 73.50410193126697]}}, {"type": "Feature", "properties": {"norad_id": 36060, "name": "COSMOS 2251 DEB", "group": "cosmos-2251-debris", "lat": 67.31831768037017, "lon": 14.929711678665772, "alt_km": 752.0970429646786, "timestamp": "2025-12-10T18:57:00.462163+00:00", "meta": {"OBJECT_NAME": "COSMOS 2251 DEB", "OBJECT_ID": "1993-036AXX", "EPOCH": "2025-12-09T10:49:25.276800", "MEAN_MOTION": 14.41988994, "ECCENTRICITY": 0.00151666, "INCLINATION": 74.0292, "RA_OF_ASC_NODE": 240.6647, "ARG_OF_PERICENTER": 338.0669, "MEAN_ANOMALY": 21.9836, "EPHEMERIS_TYPE": 0, "CLASSIFICATION_TYPE": "U", "NORAD_CAT_ID": 36060, "ELEMENT_SET_NO": 999, "REV_AT_EPOCH": 84962, "BSTAR": 0.00059597173, "MEAN_MOTION_DOT": 1.931e-05, "MEAN_MOTION_DDOT": 0}, "tle": {"line1": "1 36060U 93036AXX 25343.45098700  .00001931  00000+0  59597-3 0  9997", "line2": "2 36060  74.0292 240.6647 0015166 338.0669  21.9836 14.41988994849629"}}, "geometry": {"type": "Point", "coordinates": [14.929711678665772, 67.31831768037017]}}, {"type": "Feature", "properties": {"norad_id": 36061, "name": "COSMOS 2251 DEB", "group": "cosmos-2251-debris", "lat": -14.140607516400905, "lon": -0.8069126117631787, "alt_km": 791.1158900385772, "timestamp": "2025-12-10T18:57:00.462173+00:00", "meta": {"OBJECT_NAME": "COSMOS 2251 DEB", "OBJECT_ID": "1993-036AXY", "EPOCH": "2025-12-08T08:24:20.190816", "MEAN_MOTION": 14.33698686, "ECCENTRICITY": 0.00368149, "INCLINATION": 74.0243, "RA_OF_ASC_NODE": 7.7948, "ARG_OF_PERICENTER": 97.1574, "MEAN_ANOMALY": 263.3766, "EPHEMERIS_TYPE": 0, "CLASSIFICATION_TYPE": "U", "NORAD_CAT_ID": 36061, "ELEMENT_SET_NO": 999, "REV_AT_EPOCH": 65041, "BSTAR": 0.00050814435, "MEAN_MOTION_DOT": 1.395e-05, "MEAN_MOTION_DDOT": 0}, "tle": {"line1": "1 36061U 93036AXY 25342.35023369  .00001395  00000+0  50814-3 0  9992", "line2": "2 36061  74.0243   7.7948 0036814  97.1574 263.3766 14.33698686650411"}}, "geometry": {"type": "Point", "coordinates": [-0.8069126117631787, -14.140607516400905]}}]}